{"type":"FeatureCollection","features":[{"type":"Feature","properties":{"@id":"way/19842206","access":"no","highway":"raceway","importance":"international","@relations":[{"role":"","rel":284565,"reltags":{"access":"no","highway":"raceway","importance":"international","name":"Autodromo Nazionale di Monza","name:en":"Monza Circuit","name:it":"Autodromo Nazionale di Monza","name:ru":"Монца","type":"circuit","wikidata":"Q171417","wikipedia":"it:Autodromo Nazionale di Monza"}}]},"geometry":{"type":"LineString","coordinates":[[9.2807694,45.616193],[9.2811729,45.6189632],[9.2812785,45.6195721],[9.2814088,45.6206107],[9.2814693,45.6210889],[9.2814831,45.6211988],[9.2818939,45.6244492]]},"id":"way/19842206"},{"type":"Feature","properties":{"@id":"way/179968257","access":"no","highway":"raceway","importance":"international","@relations":[{"role":"","rel":284565,"reltags":{"access":"no","highway":"raceway","importance":"international","name":"Autodromo Nazionale di Monza","name:en":"Monza Circuit","name:it":"Autodromo Nazionale di Monza","name:ru":"Монца","type":"circuit","wikidata":"Q171417","wikipedia":"it:Autodromo Nazionale di Monza"}}]},"geometry":{"type":"LineString","coordinates":[[9.2849918,45.6209513],[9.2846818,45.6191886],[9.284201,45.6159649],[9.2836943,45.6125332]]},"id":"way/179968257"},{"type":"Feature","properties":{"@id":"way/179968234","access":"no","highway":"raceway","importance":"international","name":"Curva Parabolica","@relations":[{"role":"","rel":284565,"reltags":{"access":"no","highway":"raceway","importance":"international","name":"Autodromo Nazionale di Monza","name:en":"Monza Circuit","name:it":"Autodromo Nazionale di Monza","name:ru":"Монца","type":"circuit","wikidata":"Q171417","wikipedia":"it:Autodromo Nazionale di Monza"}}]},"geometry":{"type":"LineString","coordinates":[[9.2836943,45.6125332],[9.2836761,45.6124171],[9.283648,45.6123427],[9.2836121,45.6122853],[9.2835547,45.6122145],[9.2834722,45.61213],[9.2833888,45.6120669],[9.2832897,45.612007],[9.2831229,45.6119376],[9.2829684,45.6118935],[9.2828276,45.611869],[9.2826559,45.6118555],[9.2824887,45.6118663],[9.2823584,45.6118886],[9.2821566,45.6119351],[9.2820191,45.6119777],[9.2818906,45.6120258],[9.2816968,45.6121157],[9.2815401,45.612215],[9.2814083,45.6123096],[9.2812843,45.6124184],[9.2810848,45.6126341],[9.2809732,45.6128131],[9.280885,45.6129867],[9.2808101,45.6131896],[9.2807726,45.6133248],[9.2807416,45.6135051],[9.2807256,45.6136345],[9.280716,45.6137995],[9.2807176,45.6139645],[9.280693,45.6148387],[9.2806903,45.6152515],[9.2807029,45.6156372],[9.2807327,45.6159111],[9.2807694,45.616193]]},"id":"way/179968234"},{"type":"Feature","properties":{"@id":"way/179968226","access":"no","highway":"raceway","importance":"international","name":"Curva Vialone","@relations":[{"role":"","rel":284565,"reltags":{"access":"no","highway":"raceway","importance":"international","name":"Autodromo Nazionale di Monza","name:en":"Monza Circuit","name:it":"Autodromo Nazionale di Monza","name:ru":"Монца","type":"circuit","wikidata":"Q171417","wikipedia":"it:Autodromo Nazionale di Monza"}}]},"geometry":{"type":"LineString","coordinates":[[9.2860336,45.6228017],[9.2859698,45.6227584],[9.2859149,45.6227094],[9.285875,45.6226525],[9.2858606,45.6225802],[9.2858742,45.6224935]]},"id":"way/179968226"},{"type":"Feature","properties":{"@id":"way/179968239","access":"no","highway":"raceway","importance":"international","name":"Variante Ascari","@relations":[{"role":"","rel":284565,"reltags":{"access":"no","highway":"raceway","importance":"international","name":"Autodromo Nazionale di Monza","name:en":"Monza Circuit","name:it":"Autodromo Nazionale di Monza","name:ru":"Монца","type":"circuit","wikidata":"Q171417","wikipedia":"it:Autodromo Nazionale di Monza"}}]},"geometry":{"type":"LineString","coordinates":[[9.28592,45.6222099],[9.2859183,45.6220664],[9.2858952,45.6219441],[9.2858649,45.6218515],[9.2858028,45.6217367],[9.2857132,45.621625],[9.2856343,45.6215446],[9.2855458,45.6214706],[9.2853778,45.6213677],[9.2851936,45.6212766],[9.2851339,45.6212364],[9.2850831,45.6211922],[9.2850448,45.6211355],[9.2850178,45.6210685],[9.2849918,45.6209513]]},"id":"way/179968239"},{"type":"Feature","properties":{"@id":"way/179968249","access":"no","highway":"raceway","importance":"international","@relations":[{"role":"","rel":284565,"reltags":{"access":"no","highway":"raceway","importance":"international","name":"Autodromo Nazionale di Monza","name:en":"Monza Circuit","name:it":"Autodromo Nazionale di Monza","name:ru":"Монца","type":"circuit","wikidata":"Q171417","wikipedia":"it:Autodromo Nazionale di Monza"}}]},"geometry":{"type":"LineString","coordinates":[[9.2858742,45.6224935],[9.28592,45.6222099]]},"id":"way/179968249"},{"type":"Feature","properties":{"@id":"way/179968220","access":"no","highway":"raceway","importance":"international","name":"Curva Grande","@relations":[{"role":"","rel":284565,"reltags":{"access":"no","highway":"raceway","importance":"international","name":"Autodromo Nazionale di Monza","name:en":"Monza Circuit","name:it":"Autodromo Nazionale di Monza","name:ru":"Монца","type":"circuit","wikidata":"Q171417","wikipedia":"it:Autodromo Nazionale di Monza"}}]},"geometry":{"type":"LineString","coordinates":[[9.2822082,45.6273764],[9.2822228,45.6274663],[9.2822884,45.6277162],[9.2823414,45.6278535],[9.2824275,45.6280305],[9.2825703,45.6282622],[9.2827297,45.6284718],[9.282913,45.6286635],[9.2830708,45.6288006],[9.283235,45.6289288],[9.2834071,45.6290458],[9.2835825,45.6291517],[9.2837929,45.6292643],[9.2839877,45.6293589],[9.2841817,45.6294438],[9.2844657,45.629551],[9.2848557,45.6296739],[9.2851848,45.6297512],[9.2854824,45.6298095],[9.2857484,45.6298536],[9.2860752,45.6298946],[9.2865519,45.6299347]]},"id":"way/179968220"},{"type":"Feature","properties":{"@id":"way/179968252","access":"no","highway":"raceway","importance":"international","@relations":[{"role":"","rel":284565,"reltags":{"access":"no","highway":"raceway","importance":"international","name":"Autodromo Nazionale di Monza","name:en":"Monza Circuit","name:it":"Autodromo Nazionale di Monza","name:ru":"Монца","type":"circuit","wikidata":"Q171417","wikipedia":"it:Autodromo Nazionale di Monza"}}]},"geometry":{"type":"LineString","coordinates":[[9.2966038,45.628321],[9.2928045,45.6268398]]},"id":"way/179968252"},{"type":"Feature","properties":{"@id":"way/179968254","access":"no","highway":"raceway","importance":"international","@relations":[{"role":"","rel":284565,"reltags":{"access":"no","highway":"raceway","importance":"international","name":"Autodromo Nazionale di Monza","name:en":"Monza Circuit","name:it":"Autodromo Nazionale di Monza","name:ru":"Монца","type":"circuit","wikidata":"Q171417","wikipedia":"it:Autodromo Nazionale di Monza"}}]},"geometry":{"type":"LineString","coordinates":[[9.2914155,45.6260946],[9.2860336,45.6228017]]},"id":"way/179968254"},{"type":"Feature","properties":{"@id":"way/179968242","access":"no","highway":"raceway","importance":"international","name":"Variante del Rettifilo","@relations":[{"role":"","rel":284565,"reltags":{"access":"no","highway":"raceway","importance":"international","name":"Autodromo Nazionale di Monza","name:en":"Monza Circuit","name:it":"Autodromo Nazionale di Monza","name:ru":"Монца","type":"circuit","wikidata":"Q171417","wikipedia":"it:Autodromo Nazionale di Monza"}}]},"geometry":{"type":"LineString","coordinates":[[9.2818939,45.6244492],[9.2819022,45.6244924],[9.2819139,45.6245138],[9.2819322,45.6245326],[9.2819584,45.6245453],[9.2819947,45.6245576],[9.2820328,45.6245615],[9.282077,45.6245615],[9.2822782,45.6245453],[9.2823228,45.6245498],[9.2823659,45.6245609],[9.2824036,45.6245802],[9.2824435,45.6246131],[9.2824626,45.6246448],[9.2824706,45.624685],[9.282465,45.6247212],[9.2824337,45.6248045]]},"id":"way/179968242"},{"type":"Feature","properties":{"@id":"way/179968264","access":"no","highway":"raceway","importance":"international","@relations":[{"role":"","rel":284565,"reltags":{"access":"no","highway":"raceway","importance":"international","name":"Autodromo Nazionale di Monza","name:en":"Monza Circuit","name:it":"Autodromo Nazionale di Monza","name:ru":"Монца","type":"circuit","wikidata":"Q171417","wikipedia":"it:Autodromo Nazionale di Monza"}}]},"geometry":{"type":"LineString","coordinates":[[9.2824337,45.6248045],[9.2824108,45.6248654],[9.2821906,45.6254508],[9.2821342,45.6256399],[9.2821004,45.625796],[9.2820801,45.6259694],[9.2820745,45.6261909],[9.2822082,45.6273764]]},"id":"way/179968264"},{"type":"Feature","properties":{"@id":"way/179968228","access":"no","highway":"raceway","importance":"international","name":"Curva del Serraglio","@relations":[{"role":"","rel":284565,"reltags":{"access":"no","highway":"raceway","importance":"international","name":"Autodromo Nazionale di Monza","name:en":"Monza Circuit","name:it":"Autodromo Nazionale di Monza","name:ru":"Монца","type":"circuit","wikidata":"Q171417","wikipedia":"it:Autodromo Nazionale di Monza"}}]},"geometry":{"type":"LineString","coordinates":[[9.2928045,45.6268398],[9.2923126,45.626614],[9.2918998,45.6263933],[9.2914155,45.6260946]]},"id":"way/179968228"},{"type":"Feature","properties":{"@id":"way/179968251","access":"no","highway":"raceway","importance":"international","@relations":[{"role":"","rel":284565,"reltags":{"access":"no","highway":"raceway","importance":"international","name":"Autodromo Nazionale di Monza","name:en":"Monza Circuit","name:it":"Autodromo Nazionale di Monza","name:ru":"Монца","type":"circuit","wikidata":"Q171417","wikipedia":"it:Autodromo Nazionale di Monza"}}]},"geometry":{"type":"LineString","coordinates":[[9.2965875,45.6306805],[9.2967285,45.6296103],[9.2968526,45.6286688]]},"id":"way/179968251"},{"type":"Feature","properties":{"@id":"way/179968230","access":"no","highway":"raceway","importance":"international","name":"Lesmo 2","@relations":[{"role":"","rel":284565,"reltags":{"access":"no","highway":"raceway","importance":"international","name":"Autodromo Nazionale di Monza","name:en":"Monza Circuit","name:it":"Autodromo Nazionale di Monza","name:ru":"Монца","type":"circuit","wikidata":"Q171417","wikipedia":"it:Autodromo Nazionale di Monza"}}]},"geometry":{"type":"LineString","coordinates":[[9.2968526,45.6286688],[9.2968566,45.6285844],[9.2968425,45.6285174],[9.2968106,45.6284602],[9.2967822,45.628428],[9.2967473,45.6283964],[9.2966881,45.6283598],[9.2966038,45.628321]]},"id":"way/179968230"},{"type":"Feature","properties":{"@id":"way/179968245","access":"no","highway":"raceway","importance":"international","name":"Variante della Roggia","@relations":[{"role":"","rel":284565,"reltags":{"access":"no","highway":"raceway","importance":"international","name":"Autodromo Nazionale di Monza","name:en":"Monza Circuit","name:it":"Autodromo Nazionale di Monza","name:ru":"Монца","type":"circuit","wikidata":"Q171417","wikipedia":"it:Autodromo Nazionale di Monza"}}]},"geometry":{"type":"LineString","coordinates":[[9.291261,45.6301577],[9.291332,45.6301648],[9.2913855,45.6301774],[9.2914194,45.6301947],[9.2914458,45.6302172],[9.29147,45.6302467],[9.2914886,45.630285],[9.2915531,45.6304407],[9.2915717,45.6304845],[9.2916021,45.6305168],[9.2916365,45.63054],[9.2916889,45.6305578],[9.291774,45.6305668]]},"id":"way/179968245"},{"type":"Feature","properties":{"@id":"way/179968262","access":"no","highway":"raceway","importance":"international","@relations":[{"role":"","rel":284565,"reltags":{"access":"no","highway":"raceway","importance":"international","name":"Autodromo Nazionale di Monza","name:en":"Monza Circuit","name:it":"Autodromo Nazionale di Monza","name:ru":"Монца","type":"circuit","wikidata":"Q171417","wikipedia":"it:Autodromo Nazionale di Monza"}}]},"geometry":{"type":"LineString","coordinates":[[9.2865519,45.6299347],[9.2885865,45.6300489],[9.2896282,45.6301022],[9.2906556,45.6301371],[9.291261,45.6301577]]},"id":"way/179968262"},{"type":"Feature","properties":{"@id":"way/179968263","access":"no","highway":"raceway","importance":"international","@relations":[{"role":"","rel":284565,"reltags":{"access":"no","highway":"raceway","importance":"international","name":"Autodromo Nazionale di Monza","name:en":"Monza Circuit","name:it":"Autodromo Nazionale di Monza","name:ru":"Монца","type":"circuit","wikidata":"Q171417","wikipedia":"it:Autodromo Nazionale di Monza"}}]},"geometry":{"type":"LineString","coordinates":[[9.291774,45.6305668],[9.2919424,45.630585],[9.2921337,45.6306107],[9.2923879,45.6306525],[9.2926656,45.6307077],[9.2940914,45.6310426],[9.2953451,45.6313282]]},"id":"way/179968263"},{"type":"Feature","properties":{"@id":"way/179968229","access":"no","highway":"raceway","importance":"international","name":"Lesmo 1","@relations":[{"role":"","rel":284565,"reltags":{"access":"no","highway":"raceway","importance":"international","name":"Autodromo Nazionale di Monza","name:en":"Monza Circuit","name:it":"Autodromo Nazionale di Monza","name:ru":"Монца","type":"circuit","wikidata":"Q171417","wikipedia":"it:Autodromo Nazionale di Monza"}}]},"geometry":{"type":"LineString","coordinates":[[9.2953451,45.6313282],[9.2954759,45.6313528],[9.2956161,45.6313639],[9.2957813,45.6313568],[9.2959334,45.6313292],[9.2960698,45.6312866],[9.2961825,45.6312401],[9.2962907,45.6311755],[9.2963786,45.6311069],[9.2964361,45.6310478],[9.2964834,45.6309871],[9.296534,45.6309104],[9.2965703,45.6307941],[9.2965875,45.6306805]]},"id":"way/179968229"}]}